QZS-1R                  
1 49336U 21096A   23187.68992183 -.00000275  00000+0  00000+0 0  9993
2 49336  35.2327  95.8366 0757817 271.7140 298.8349  1.00250398  6213
